KUIPER-00176            
1 65788U 25217AC  25299.97799261  .00043335  00000+0  11671-2 0  9993
2 65788  51.8728 290.3474 0002660 100.3136 259.8151 15.37409386  4858
KUIPER-00101            
1 65947U 25228A   25299.90844783  .00018297  00000+0  54768-3 0  9999
2 65947  51.8801 246.1684 0005889 180.9826 179.1149 15.34572695  3227
KUIPER-00113            
1 65948U 25228B   25299.90630024  .00032690  00000+0  95974-3 0  9998
2 65948  51.8806 246.1574 0006405 177.9412 182.1601 15.34835437  3226
KUIPER-00117            
1 65949U 25228C   25299.90664618  .00016545  00000+0  49317-3 0  9996
2 65949  51.8804 246.1596 0006127 177.3575 182.7444 15.34778399  3228
KUIPER-00121            
1 65950U 25228D   25299.91175814  .00023365  00000+0  70396-3 0  9993
2 65950  51.8813 246.1957 0005682 195.8138 164.2671 15.34204939  3227
KUIPER-00122            
1 65951U 25228E   25299.91272461  .00019128  00000+0  58123-3 0  9996
2 65951  51.8808 246.1963 0006728 199.4056 160.6674 15.34059385  3226
KUIPER-00123            
1 65952U 25228F   25299.91185142  .00033622  00000+0  10088-2 0  9998
2 65952  51.8798 246.1900 0005458 190.8810 169.2059 15.34140394  3221
KUIPER-00124            
1 65953U 25228G   25299.91313694  .00017436  00000+0  53170-3 0  9999
2 65953  51.8810 246.2029 0005508 205.4719 154.5995 15.34019201  3225
